start=new Date('2023-05-16T00:00:00.000Z').valueOf();
sats=[{"EPOCH":"2023-05-15T19:39:42.475968","OBJECT_NAME":"STARLINK-1056","MEAN_ANOMALY":"279.6301","MEAN_MOTION_DOT":"0.00002609","RCS_SIZE":"LARGE","SEMIMAJOR_AXIS":"6925.339","OBJECT_ID":"2019-074BA","REV_AT_EPOCH":"19312","EPHEMERIS_TYPE":"0","GP_ID":"231920100","SITE":"AFETR","TLE_LINE2":"2 44761  53.0527 165.3952 0001309  80.4836 279.6301 15.06402960193126","TIME_SYSTEM":"UTC","TLE_LINE1":"1 44761U 19074BA  23135.81924162  .00002609  00000-0  19399-3 0  9991","MEAN_MOTION_DDOT":"0.0000000000000","REF_FRAME":"TEME","LAUNCH_DATE":"2019-11-11","DECAY_DATE":null,"MEAN_ELEMENT_THEORY":"SGP4","APOAPSIS":"548.111","ELEMENT_SET_NO":"999","OBJECT_TYPE":"PAYLOAD","ARG_OF_PERICENTER":"80.4836","INCLINATION":"53.0527","RA_OF_ASC_NODE":"165.3952","ECCENTRICITY":"0.00013090","PERIOD":"95.592","CLASSIFICATION_TYPE":"U","PERIAPSIS":"546.298","MEAN_MOTION":"15.06402960","BSTAR":"0.00019399000000","COUNTRY_CODE":"US","FILE":"3908892","CENTER_NAME":"EARTH","NORAD_CAT_ID":"44761"},{"REV_AT_EPOCH":"19355","SEMIMAJOR_AXIS":"6925.360","MEAN_MOTION_DOT":"0.00000567","RCS_SIZE":"LARGE","OBJECT_ID":"2019-074BB","OBJECT_NAME":"STARLINK-1057","MEAN_ANOMALY":"267.4808","EPOCH":"2023-05-15T18:06:49.318272","GP_ID":"231900603","SITE":"AFETR","TIME_SYSTEM":"UTC","TLE_LINE2":"2 44762  53.0528 145.6838 0001217  92.6320 267.4808 15.06396172193554","EPHEMERIS_TYPE":"0","APOAPSIS":"548.068","MEAN_ELEMENT_THEORY":"SGP4","ELEMENT_SET_NO":"999","LAUNCH_DATE":"2019-11-11","DECAY_DATE":null,"REF_FRAME":"TEME","MEAN_MOTION_DDOT":"0.0000000000000","TLE_LINE1":"1 44762U 19074BB  23135.75473748  .00000567  00000-0  56977-4 0  9999","NORAD_CAT_ID":"44762","CENTER_NAME":"EARTH","COUNTRY_CODE":"US","BSTAR":"0.00005697700000","FILE":"3908783","CLASSIFICATION_TYPE":"U","PERIOD":"95.592","MEAN_MOTION":"15.06396172","PERIAPSIS":"546.382","OBJECT_TYPE":"PAYLOAD","ECCENTRICITY":"0.00012170","RA_OF_ASC_NODE":"145.6838","INCLINATION":"53.0528","ARG_OF_PERICENTER":"92.6320"},{"OBJECT_NAME":"STARLINK-1058","MEAN_ANOMALY":"271.6138","EPOCH":"2023-05-15T18:34:39.409536","REV_AT_EPOCH":"19328","SEMIMAJOR_AXIS":"6925.357","RCS_SIZE":"LARGE","MEAN_MOTION_DOT":"0.00000395","OBJECT_ID":"2019-074BC","EPHEMERIS_TYPE":"0","SITE":"AFETR","GP_ID":"231900601","TIME_SYSTEM":"UTC","TLE_LINE2":"2 44763  53.0527 165.5915 0001324  88.5002 271.6138 15.06397186193280","REF_FRAME":"TEME","TLE_LINE1":"1 44763U 19074BC  23135.77406724  .00000395  00000-0  45420-4 0  9992","MEAN_MOTION_DDOT":"0.0000000000000","APOAPSIS":"548.139","MEAN_ELEMENT_THEORY":"SGP4","ELEMENT_SET_NO":"999","DECAY_DATE":null,"LAUNCH_DATE":"2019-11-11","CLASSIFICATION_TYPE":"U","PERIOD":"95.592","MEAN_MOTION":"15.06397186","PERIAPSIS":"546.305","OBJECT_TYPE":"PAYLOAD","RA_OF_ASC_NODE":"165.5915","INCLINATION":"53.0527","ECCENTRICITY":"0.00013240","ARG_OF_PERICENTER":"88.5002","NORAD_CAT_ID":"44763","CENTER_NAME":"EARTH","COUNTRY_CODE":"US","BSTAR":"0.00004542000000","FILE":"3908783"},{"EPHEMERIS_TYPE":"0","TIME_SYSTEM":"UTC","TLE_LINE2":"2 44764  53.0628 133.2641 0004955  12.7798 347.3323 15.21551907193530","GP_ID":"231890035","SITE":"AFETR","MEAN_ANOMALY":"347.3323","OBJECT_NAME":"STARLINK-1059","EPOCH":"2023-05-15T09:46:17.237280","REV_AT_EPOCH":"19353","OBJECT_ID":"2019-074BD","SEMIMAJOR_AXIS":"6879.296","MEAN_MOTION_DOT":"0.00012696","RCS_SIZE":"LARGE","MEAN_MOTION":"15.21551907","PERIAPSIS":"497.752","CLASSIFICATION_TYPE":"U","PERIOD":"94.640","INCLINATION":"53.0628","RA_OF_ASC_NODE":"133.2641","ECCENTRICITY":"0.00049550","ARG_OF_PERICENTER":"12.7798","OBJECT_TYPE":"PAYLOAD","NORAD_CAT_ID":"44764","CENTER_NAME":"EARTH","FILE":"3908681","COUNTRY_CODE":"US","BSTAR":"0.00056958000000","REF_FRAME":"TEME","TLE_LINE1":"1 44764U 19074BD  23135.40714395  .00012696  00000-0  56958-3 0  9993","MEAN_MOTION_DDOT":"0.0000000000000","ELEMENT_SET_NO":"999","APOAPSIS":"504.570","MEAN_ELEMENT_THEORY":"SGP4","LAUNCH_DATE":"2019-11-11","DECAY_DATE":null},{"EPOCH":"2023-05-15T10:30:21.447072","OBJECT_NAME":"STARLINK-1060","MEAN_ANOMALY":"272.7845","SEMIMAJOR_AXIS":"6925.343","RCS_SIZE":"LARGE","MEAN_MOTION_DOT":"0.00002414","OBJECT_ID":"2019-074BE","REV_AT_EPOCH":"19333","EPHEMERIS_TYPE":"0","SITE":"AFETR","GP_ID":"231889288","TIME_SYSTEM":"UTC","TLE_LINE2":"2 44765  53.0532 147.1099 0001368  87.3301 272.7845 15.06401907193334","MEAN_MOTION_DDOT":"0.0000000000000","TLE_LINE1":"1 44765U 19074BE  23135.43774823  .00002414  00000-0  18092-3 0  9993","REF_FRAME":"TEME","DECAY_DATE":null,"LAUNCH_DATE":"2019-11-11","APOAPSIS":"548.155","MEAN_ELEMENT_THEORY":"SGP4","ELEMENT_SET_NO":"999","OBJECT_TYPE":"PAYLOAD","ECCENTRICITY":"0.00013680","RA_OF_ASC_NODE":"147.1099","INCLINATION":"53.0532","ARG_OF_PERICENTER":"87.3301","CLASSIFICATION_TYPE":"U","PERIOD":"95.592","MEAN_MOTION":"15.06401907","PERIAPSIS":"546.260","COUNTRY_CODE":"US","BSTAR":"0.00018092000000","FILE":"3908681","NORAD_CAT_ID":"44765","CENTER_NAME":"EARTH"},{"COUNTRY_CODE":"US","BSTAR":"0.00075750000000","FILE":"3908681","NORAD_CAT_ID":"44766","CENTER_NAME":"EARTH","OBJECT_TYPE":"PAYLOAD","RA_OF_ASC_NODE":"167.4149","ECCENTRICITY":"0.00013370","INCLINATION":"53.0532","ARG_OF_PERICENTER":"86.1555","CLASSIFICATION_TYPE":"U","PERIOD":"95.591","MEAN_MOTION":"15.06416170","PERIAPSIS":"546.238","LAUNCH_DATE":"2019-11-11","DECAY_DATE":null,"APOAPSIS":"548.090","MEAN_ELEMENT_THEORY":"SGP4","ELEMENT_SET_NO":"999","MEAN_MOTION_DDOT":"0.0000000000000","TLE_LINE1":"1 44766U 19074BF  23135.36956087  .00011024  00000-0  75750-3 0  9991","REF_FRAME":"TEME","SITE":"AFETR","GP_ID":"231889538","TIME_SYSTEM":"UTC","TLE_LINE2":"2 44766  53.0532 167.4149 0001337  86.1555 273.9587 15.06416170193053","EPHEMERIS_TYPE":"0","SEMIMAJOR_AXIS":"6925.299","MEAN_MOTION_DOT":"0.00011024","RCS_SIZE":"LARGE","OBJECT_ID":"2019-074BF","REV_AT_EPOCH":"19305","EPOCH":"2023-05-15T08:52:10.059168","OBJECT_NAME":"STARLINK-1061","MEAN_ANOMALY":"273.9587"},{"OBJECT_TYPE":"PAYLOAD","ECCENTRICITY":"0.00013690","RA_OF_ASC_NODE":"167.4375","INCLINATION":"53.0524","ARG_OF_PERICENTER":"80.6568","CLASSIFICATION_TYPE":"U","PERIOD":"95.592","MEAN_MOTION":"15.06406220","PERIAPSIS":"546.246","COUNTRY_CODE":"US","BSTAR":"0.00079100000000","FILE":"3908681","NORAD_CAT_ID":"44767","CENTER_NAME":"EARTH","TLE_LINE1":"1 44767U 19074BG  23135.36124580  .00011522  00000-0  79100-3 0  9993","MEAN_MOTION_DDOT":"0.0000000000000","REF_FRAME":"TEME","DECAY_DATE":null,"LAUNCH_DATE":"2019-11-11","APOAPSIS":"548.143","MEAN_ELEMENT_THEORY":"SGP4","ELEMENT_SET_NO":"999","EPHEMERIS_TYPE":"0","SITE":"AFETR","GP_ID":"231889789","TIME_SYSTEM":"UTC","TLE_LINE2":"2 44767  53.0524 167.4375 0001369  80.6568 279.4576 15.06406220193058","EPOCH":"2023-05-15T08:40:11.637120","OBJECT_NAME":"STARLINK-1062","MEAN_ANOMALY":"279.4576","SEMIMAJOR_AXIS":"6925.329","RCS_SIZE":"LARGE","MEAN_MOTION_DOT":"0.00011522","OBJECT_ID":"2019-074BG","REV_AT_EPOCH":"19305"},{"EPOCH":"2023-05-15T18:46:37.497216","OBJECT_NAME":"STARLINK-1063","MEAN_ANOMALY":"282.9529","SEMIMAJOR_AXIS":"6925.343","RCS_SIZE":"LARGE","MEAN_MOTION_DOT":"0.00000131","OBJECT_ID":"2019-074BH","REV_AT_EPOCH":"19328","EPHEMERIS_TYPE":"0","GP_ID":"231900834","SITE":"AFETR","TIME_SYSTEM":"UTC","TLE_LINE2":"2 44768  53.0520 165.5612 0000979  77.1570 282.9529 15.06401920193282","MEAN_MOTION_DDOT":"0.0000000000000","TLE_LINE1":"1 44768U 19074BH  23135.78237844  .00000131  00000-0  27687-4 0  9996","REF_FRAME":"TEME","DECAY_DATE":null,"LAUNCH_DATE":"2019-11-11","APOAPSIS":"547.886","MEAN_ELEMENT_THEORY":"SGP4","ELEMENT_SET_NO":"999","OBJECT_TYPE":"PAYLOAD","RA_OF_ASC_NODE":"165.5612","INCLINATION":"53.0520","ECCENTRICITY":"0.00009790","ARG_OF_PERICENTER":"77.1570","CLASSIFICATION_TYPE":"U","PERIOD":"95.592","MEAN_MOTION":"15.06401920","PERIAPSIS":"546.530","COUNTRY_CODE":"US","BSTAR":"0.00002768700000","FILE":"3908786","NORAD_CAT_ID":"44768","CENTER_NAME":"EARTH"},{"SEMIMAJOR_AXIS":"6925.356","RCS_SIZE":"LARGE","MEAN_MOTION_DOT":"0.00001052","OBJECT_ID":"2019-074BL","REV_AT_EPOCH":"19328","EPOCH":"2023-05-15T18:30:42.522336","OBJECT_NAME":"STARLINK-1067","MEAN_ANOMALY":"277.9247","GP_ID":"231900835","SITE":"AFETR","TIME_SYSTEM":"UTC","TLE_LINE2":"2 44771  53.0527 165.6106 0001291  82.1889 277.9247 15.06397568193282","EPHEMERIS_TYPE":"0","LAUNCH_DATE":"2019-11-11","DECAY_DATE":null,"APOAPSIS":"548.115","MEAN_ELEMENT_THEORY":"SGP4","ELEMENT_SET_NO":"999","MEAN_MOTION_DDOT":"0.0000000000000","TLE_LINE1":"1 44771U 19074BL  23135.77132549  .00001052  00000-0  89538-4 0  9991","REF_FRAME":"TEME","COUNTRY_CODE":"US","BSTAR":"0.00008953800000","FILE":"3908786","NORAD_CAT_ID":"44771","CENTER_NAME":"EARTH","OBJECT_TYPE":"PAYLOAD","RA_OF_ASC_NODE":"165.6106","ECCENTRICITY":"0.00012910","INCLINATION":"53.0527","ARG_OF_PERICENTER":"82.1889","CLASSIFICATION_TYPE":"U","PERIOD":"95.592","MEAN_MOTION":"15.06397568","PERIAPSIS":"546.327"},{"TLE_LINE1":"1 44772U 19074BM  23135.76211017  .00000922  00000-0  80813-4 0  9991","MEAN_MOTION_DDOT":"0.0000000000000","REF_FRAME":"TEME","DECAY_DATE":null,"LAUNCH_DATE":"2019-11-11","ELEMENT_SET_NO":"999","MEAN_ELEMENT_THEORY":"SGP4","APOAPSIS":"548.086","ARG_OF_PERICENTER":"95.8995","RA_OF_ASC_NODE":"145.6536","ECCENTRICITY":"0.00012490","INCLINATION":"53.0535","OBJECT_TYPE":"PAYLOAD","PERIAPSIS":"546.356","MEAN_MOTION":"15.06397475","PERIOD":"95.592","CLASSIFICATION_TYPE":"U","FILE":"3908892","BSTAR":"0.00008081300000","COUNTRY_CODE":"US","CENTER_NAME":"EARTH","NORAD_CAT_ID":"44772","EPOCH":"2023-05-15T18:17:26.318688","MEAN_ANOMALY":"264.2136","OBJECT_NAME":"STARLINK-1068","OBJECT_ID":"2019-074BM","RCS_SIZE":"LARGE","MEAN_MOTION_DOT":"0.00000922","SEMIMAJOR_AXIS":"6925.356","REV_AT_EPOCH":"19338","EPHEMERIS_TYPE":"0","TLE_LINE2":"2 44772  53.0535 145.6536 0001249  95.8995 264.2136 15.06397475193383","TIME_SYSTEM":"UTC","GP_ID":"231920351","SITE":"AFETR"}];
